2022-160D               
1 54375U 22160D   22348.13564815  .00024990  00000+0  10017-2 0  9991
2 54375  34.9988 123.1893 0008062  50.4537 285.6119 15.24083304  2536
2022-160E               
1 54376U 22160E   22348.14968750  .00011227  00000+0  47384-3 0  9996
2 54376  34.9977 123.2786 0007747  37.3540 308.6508 15.22475238  2531
COSMOS 2564 [GLONASS-M] 
1 54377U 22161A   22343.65354395  .00000039  00000+0  00000+0 0  9992
2 54377  64.7808 235.5579 0027267 231.6187 268.4265  2.13730857   233
FREGAT R/B              
1 54378U 22161B   22332.88538517  .00000006  00000+0  00000+0 0  9990
2 54378  64.7543 235.8312 0069964  61.3586  78.3433  2.10629160    00
SHENZHOU-15             
1 54379U 22162A   22347.34823405  .00021681  00000+0  26699-3 0  9990
2 54379  41.4747 208.1191 0004178  90.6520  78.4117 15.59697973 92775
COSMOS 2565             
1 54381U 22163A   22348.27032951 -.00000152  00000+0 -55624-4 0  9998
2 54381  67.1548 340.5151 0007232 264.1993  95.8339 13.96672553  1893
SL-4 R/B                
1 54382U 22163B   22347.97568491  .00111932  68199-5  57168-3 0  9998
2 54382  67.1319 335.9178 0454651  80.1408 285.0733 15.05168078  1979
2022-163C               
1 54383U 22163C   22348.26673042  .00000012  00000+0  62623-4 0  9991
2 54383  67.1419 340.4959 0010949 321.4477  38.5825 13.97182245  1585
