<?xml version="1.0" encoding="UTF-8"?>
<ndm xmlns:xsi="http://www.w3.org/2001/XMLSchema-instance" xsi:noNamespaceSchemaLocation="https://sanaregistry.org/r/ndmxml_unqualified/ndmxml-2.0.0-master-2.0.xsd">
<omm id="CCSDS_OMM_VERS" version="2.0">
<header><CREATION_DATE/><ORIGINATOR/></header><body><segment><metadata><OBJECT_NAME>2022-160D</OBJECT_NAME><OBJECT_ID>2022-160D</OBJECT_ID><CENTER_NAME>EARTH</CENTER_NAME><REF_FRAME>TEME</REF_FRAME><TIME_SYSTEM>UTC</TIME_SYSTEM><MEAN_ELEMENT_THEORY>SGP4</MEAN_ELEMENT_THEORY></metadata><data><meanElements><EPOCH>2022-12-14T03:15:20.000160</EPOCH><MEAN_MOTION>15.24083304</MEAN_MOTION><ECCENTRICITY>.0008062</ECCENTRICITY><INCLINATION>34.9988</INCLINATION><RA_OF_ASC_NODE>123.1893</RA_OF_ASC_NODE><ARG_OF_PERICENTER>50.4537</ARG_OF_PERICENTER><MEAN_ANOMALY>285.6119</MEAN_ANOMALY></meanElements><tleParameters><EPHEMERIS_TYPE>0</EPHEMERIS_TYPE><CLASSIFICATION_TYPE>U</CLASSIFICATION_TYPE><NORAD_CAT_ID>54375</NORAD_CAT_ID><ELEMENT_SET_NO>999</ELEMENT_SET_NO><REV_AT_EPOCH>253</REV_AT_EPOCH><BSTAR>.10017E-2</BSTAR><MEAN_MOTION_DOT>.2499E-3</MEAN_MOTION_DOT><MEAN_MOTION_DDOT>0</MEAN_MOTION_DDOT></tleParameters></data></segment></body></omm>
<omm id="CCSDS_OMM_VERS" version="2.0">
<header><CREATION_DATE/><ORIGINATOR/></header><body><segment><metadata><OBJECT_NAME>2022-160E</OBJECT_NAME><OBJECT_ID>2022-160E</OBJECT_ID><CENTER_NAME>EARTH</CENTER_NAME><REF_FRAME>TEME</REF_FRAME><TIME_SYSTEM>UTC</TIME_SYSTEM><MEAN_ELEMENT_THEORY>SGP4</MEAN_ELEMENT_THEORY></metadata><data><meanElements><EPOCH>2022-12-14T03:35:33.000000</EPOCH><MEAN_MOTION>15.22475238</MEAN_MOTION><ECCENTRICITY>.0007747</ECCENTRICITY><INCLINATION>34.9977</INCLINATION><RA_OF_ASC_NODE>123.2786</RA_OF_ASC_NODE><ARG_OF_PERICENTER>37.3540</ARG_OF_PERICENTER><MEAN_ANOMALY>308.6508</MEAN_ANOMALY></meanElements><tleParameters><EPHEMERIS_TYPE>0</EPHEMERIS_TYPE><CLASSIFICATION_TYPE>U</CLASSIFICATION_TYPE><NORAD_CAT_ID>54376</NORAD_CAT_ID><ELEMENT_SET_NO>999</ELEMENT_SET_NO><REV_AT_EPOCH>253</REV_AT_EPOCH><BSTAR>.47384E-3</BSTAR><MEAN_MOTION_DOT>.11227E-3</MEAN_MOTION_DOT><MEAN_MOTION_DDOT>0</MEAN_MOTION_DDOT></tleParameters></data></segment></body></omm>
<omm id="CCSDS_OMM_VERS" version="2.0">
<header><CREATION_DATE/><ORIGINATOR/></header><body><segment><metadata><OBJECT_NAME>COSMOS 2564 [GLONASS-M]</OBJECT_NAME><OBJECT_ID>2022-161A</OBJECT_ID><CENTER_NAME>EARTH</CENTER_NAME><REF_FRAME>TEME</REF_FRAME><TIME_SYSTEM>UTC</TIME_SYSTEM><MEAN_ELEMENT_THEORY>SGP4</MEAN_ELEMENT_THEORY></metadata><data><meanElements><EPOCH>2022-12-09T15:41:06.197280</EPOCH><MEAN_MOTION>2.13730857</MEAN_MOTION><ECCENTRICITY>.0027267</ECCENTRICITY><INCLINATION>64.7808</INCLINATION><RA_OF_ASC_NODE>235.5579</RA_OF_ASC_NODE><ARG_OF_PERICENTER>231.6187</ARG_OF_PERICENTER><MEAN_ANOMALY>268.4265</MEAN_ANOMALY></meanElements><tleParameters><EPHEMERIS_TYPE>0</EPHEMERIS_TYPE><CLASSIFICATION_TYPE>U</CLASSIFICATION_TYPE><NORAD_CAT_ID>54377</NORAD_CAT_ID><ELEMENT_SET_NO>999</ELEMENT_SET_NO><REV_AT_EPOCH>23</REV_AT_EPOCH><BSTAR>0</BSTAR><MEAN_MOTION_DOT>.39E-6</MEAN_MOTION_DOT><MEAN_MOTION_DDOT>0</MEAN_MOTION_DDOT></tleParameters></data></segment></body></omm>
<omm id="CCSDS_OMM_VERS" version="2.0">
<header><CREATION_DATE/><ORIGINATOR/></header><body><segment><metadata><OBJECT_NAME>FREGAT R/B</OBJECT_NAME><OBJECT_ID>2022-161B</OBJECT_ID><CENTER_NAME>EARTH</CENTER_NAME><REF_FRAME>TEME</REF_FRAME><TIME_SYSTEM>UTC</TIME_SYSTEM><MEAN_ELEMENT_THEORY>SGP4</MEAN_ELEMENT_THEORY></metadata><data><meanElements><EPOCH>2022-11-28T21:14:57.278688</EPOCH><MEAN_MOTION>2.10629160</MEAN_MOTION><ECCENTRICITY>.0069964</ECCENTRICITY><INCLINATION>64.7543</INCLINATION><RA_OF_ASC_NODE>235.8312</RA_OF_ASC_NODE><ARG_OF_PERICENTER>61.3586</ARG_OF_PERICENTER><MEAN_ANOMALY>78.3433</MEAN_ANOMALY></meanElements><tleParameters><EPHEMERIS_TYPE>0</EPHEMERIS_TYPE><CLASSIFICATION_TYPE>U</CLASSIFICATION_TYPE><NORAD_CAT_ID>54378</NORAD_CAT_ID><ELEMENT_SET_NO>999</ELEMENT_SET_NO><REV_AT_EPOCH>0</REV_AT_EPOCH><BSTAR>0</BSTAR><MEAN_MOTION_DOT>.6E-7</MEAN_MOTION_DOT><MEAN_MOTION_DDOT>0</MEAN_MOTION_DDOT></tleParameters></data></segment></body></omm>
<omm id="CCSDS_OMM_VERS" version="2.0">
<header><CREATION_DATE/><ORIGINATOR/></header><body><segment><metadata><OBJECT_NAME>SHENZHOU-15</OBJECT_NAME><OBJECT_ID>2022-162A</OBJECT_ID><CENTER_NAME>EARTH</CENTER_NAME><REF_FRAME>TEME</REF_FRAME><TIME_SYSTEM>UTC</TIME_SYSTEM><MEAN_ELEMENT_THEORY>SGP4</MEAN_ELEMENT_THEORY></metadata><data><meanElements><EPOCH>2022-12-13T08:21:27.421920</EPOCH><MEAN_MOTION>15.59697973</MEAN_MOTION><ECCENTRICITY>.0004178</ECCENTRICITY><INCLINATION>41.4747</INCLINATION><RA_OF_ASC_NODE>208.1191</RA_OF_ASC_NODE><ARG_OF_PERICENTER>90.6520</ARG_OF_PERICENTER><MEAN_ANOMALY>78.4117</MEAN_ANOMALY></meanElements><tleParameters><EPHEMERIS_TYPE>0</EPHEMERIS_TYPE><CLASSIFICATION_TYPE>U</CLASSIFICATION_TYPE><NORAD_CAT_ID>54379</NORAD_CAT_ID><ELEMENT_SET_NO>999</ELEMENT_SET_NO><REV_AT_EPOCH>9277</REV_AT_EPOCH><BSTAR>.26699E-3</BSTAR><MEAN_MOTION_DOT>.21681E-3</MEAN_MOTION_DOT><MEAN_MOTION_DDOT>0</MEAN_MOTION_DDOT></tleParameters></data></segment></body></omm>
<omm id="CCSDS_OMM_VERS" version="2.0">
<header><CREATION_DATE/><ORIGINATOR/></header><body><segment><metadata><OBJECT_NAME>COSMOS 2565</OBJECT_NAME><OBJECT_ID>2022-163A</OBJECT_ID><CENTER_NAME>EARTH</CENTER_NAME><REF_FRAME>TEME</REF_FRAME><TIME_SYSTEM>UTC</TIME_SYSTEM><MEAN_ELEMENT_THEORY>SGP4</MEAN_ELEMENT_THEORY></metadata><data><meanElements><EPOCH>2022-12-14T06:29:16.469664</EPOCH><MEAN_MOTION>13.96672553</MEAN_MOTION><ECCENTRICITY>.0007232</ECCENTRICITY><INCLINATION>67.1548</INCLINATION><RA_OF_ASC_NODE>340.5151</RA_OF_ASC_NODE><ARG_OF_PERICENTER>264.1993</ARG_OF_PERICENTER><MEAN_ANOMALY>95.8339</MEAN_ANOMALY></meanElements><tleParameters><EPHEMERIS_TYPE>0</EPHEMERIS_TYPE><CLASSIFICATION_TYPE>U</CLASSIFICATION_TYPE><NORAD_CAT_ID>54381</NORAD_CAT_ID><ELEMENT_SET_NO>999</ELEMENT_SET_NO><REV_AT_EPOCH>189</REV_AT_EPOCH><BSTAR>-.55624E-4</BSTAR><MEAN_MOTION_DOT>-.152E-5</MEAN_MOTION_DOT><MEAN_MOTION_DDOT>0</MEAN_MOTION_DDOT></tleParameters></data></segment></body></omm>
<omm id="CCSDS_OMM_VERS" version="2.0">
<header><CREATION_DATE/><ORIGINATOR/></header><body><segment><metadata><OBJECT_NAME>SL-4 R/B</OBJECT_NAME><OBJECT_ID>2022-163B</OBJECT_ID><CENTER_NAME>EARTH</CENTER_NAME><REF_FRAME>TEME</REF_FRAME><TIME_SYSTEM>UTC</TIME_SYSTEM><MEAN_ELEMENT_THEORY>SGP4</MEAN_ELEMENT_THEORY></metadata><data><meanElements><EPOCH>2022-12-13T23:24:59.176224</EPOCH><MEAN_MOTION>15.05168078</MEAN_MOTION><ECCENTRICITY>.0454651</ECCENTRICITY><INCLINATION>67.1319</INCLINATION><RA_OF_ASC_NODE>335.9178</RA_OF_ASC_NODE><ARG_OF_PERICENTER>80.1408</ARG_OF_PERICENTER><MEAN_ANOMALY>285.0733</MEAN_ANOMALY></meanElements><tleParameters><EPHEMERIS_TYPE>0</EPHEMERIS_TYPE><CLASSIFICATION_TYPE>U</CLASSIFICATION_TYPE><NORAD_CAT_ID>54382</NORAD_CAT_ID><ELEMENT_SET_NO>999</ELEMENT_SET_NO><REV_AT_EPOCH>197</REV_AT_EPOCH><BSTAR>.57168E-3</BSTAR><MEAN_MOTION_DOT>.111932E-2</MEAN_MOTION_DOT><MEAN_MOTION_DDOT>.68199E-5</MEAN_MOTION_DDOT></tleParameters></data></segment></body></omm>
<omm id="CCSDS_OMM_VERS" version="2.0">
<header><CREATION_DATE/><ORIGINATOR/></header><body><segment><metadata><OBJECT_NAME>2022-163C</OBJECT_NAME><OBJECT_ID>2022-163C</OBJECT_ID><CENTER_NAME>EARTH</CENTER_NAME><REF_FRAME>TEME</REF_FRAME><TIME_SYSTEM>UTC</TIME_SYSTEM><MEAN_ELEMENT_THEORY>SGP4</MEAN_ELEMENT_THEORY></metadata><data><meanElements><EPOCH>2022-12-14T06:24:05.508288</EPOCH><MEAN_MOTION>13.97182245</MEAN_MOTION><ECCENTRICITY>.0010949</ECCENTRICITY><INCLINATION>67.1419</INCLINATION><RA_OF_ASC_NODE>340.4959</RA_OF_ASC_NODE><ARG_OF_PERICENTER>321.4477</ARG_OF_PERICENTER><MEAN_ANOMALY>38.5825</MEAN_ANOMALY></meanElements><tleParameters><EPHEMERIS_TYPE>0</EPHEMERIS_TYPE><CLASSIFICATION_TYPE>U</CLASSIFICATION_TYPE><NORAD_CAT_ID>54383</NORAD_CAT_ID><ELEMENT_SET_NO>999</ELEMENT_SET_NO><REV_AT_EPOCH>158</REV_AT_EPOCH><BSTAR>.62623E-4</BSTAR><MEAN_MOTION_DOT>.12E-6</MEAN_MOTION_DOT><MEAN_MOTION_DDOT>0</MEAN_MOTION_DDOT></tleParameters></data></segment></body></omm>

</ndm>